<?xml version="1.0" encoding="UTF-8"?>
<kml xmlns="http://www.opengis.net/kml/2.2" xmlns:gx="http://www.google.com/kml/ext/2.2">
    <Document id="1">
        <GroundOverlay id="2">
            <name>testprediction.tif</name>
            <LatLonBox>
                <north>39.38328456793823</north>
                <south>39.36015116272139</south>
                <east>-3.2436945228106047</east>
                <west>-3.27349945886342</west>
            </LatLonBox>
        </GroundOverlay>
    </Document>
</kml>
