<?xml version="1.0" encoding="UTF-8"?>
<kml xmlns="http://www.opengis.net/kml/2.2" xmlns:gx="http://www.google.com/kml/ext/2.2">
    <Document id="1">
        <GroundOverlay id="2">
            <name>testprediction.tif</name>
            <LatLonBox>
                <north>35.78068140272681</north>
                <south>35.75755574893394</south>
                <east>50.82702474086188</east>
                <west>50.798648970768845</west>
            </LatLonBox>
        </GroundOverlay>
    </Document>
</kml>
