<?xml version="1.0" encoding="UTF-8"?>
<kml xmlns="http://www.opengis.net/kml/2.2" xmlns:gx="http://www.google.com/kml/ext/2.2">
    <Document id="1">
        <GroundOverlay id="2">
            <name>testprediction.tif</name>
            <LatLonBox>
                <north>28.19109129044596</north>
                <south>28.167952688040117</south>
                <east>-99.14135597902695</east>
                <west>-99.16746918617307</west>
            </LatLonBox>
        </GroundOverlay>
    </Document>
</kml>
