<?xml version="1.0" encoding="UTF-8"?>
<kml xmlns="http://www.opengis.net/kml/2.2" xmlns:gx="http://www.google.com/kml/ext/2.2">
    <Document id="1">
        <GroundOverlay id="2">
            <name>testprediction.tif</name>
            <LatLonBox>
                <north>29.131348710890986</north>
                <south>29.10816058027494</south>
                <east>21.43456398018259</east>
                <west>21.40815675048206</west>
            </LatLonBox>
        </GroundOverlay>
    </Document>
</kml>
